ONEWEB-0120             
1 47266U 20100J   25316.25802425 -.00000240  00000+0 -70291-3 0  9992
2 47266  87.8965  33.7806 0001766  97.8381 262.2949 13.12445010236278
ONEWEB-0121             
1 47267U 20100K   25316.24653296 -.00000320  00000+0 -92477-3 0  9991
2 47267  87.8973  33.7489 0001863 105.1169 255.0166 13.12443366236183
ONEWEB-0122             
1 47268U 20100L   25316.24153008 -.00000289  00000+0 -83788-3 0  9997
2 47268  87.8971  33.7526 0001903  99.6310 260.5033 13.12442959236095
ONEWEB-0123             
1 47269U 20100M   25316.23679378 -.00000155  00000+0 -46513-3 0  9997
2 47269  87.8972  33.7810 0001629 100.9730 259.1582 13.12440930236236
ONEWEB-0124             
1 47270U 20100N   25316.22544460  .00000163  00000+0  41781-3 0  9990
2 47270  87.8975  33.7872 0001706 107.7363 252.3952 13.12441189236112
ONEWEB-0125             
1 47271U 20100P   25316.20274041  .00000339  00000+0  90813-3 0  9999
2 47271  87.8971  33.7537 0001467 105.4428 254.6863 13.12444724236178
ONEWEB-0126             
1 47272U 20100Q   25316.22396552  .00000140  00000+0  35479-3 0  9991
2 47272  87.8971  33.7727 0001782  98.2380 261.8951 13.12440875236245
ONEWEB-0127             
1 47273U 20100R   25316.18976153  .00000048  00000+0  96763-4 0  9999
2 47273  87.8974  33.7909 0001860  98.3713 261.7626 13.12445253236264
